SCD 1                   
1 22490U 93009B   22347.28892381  .00000378  00000+0  54349-4 0  9993
2 22490  24.9682 194.1797 0042686 264.4553 256.8184 14.44765536575447
TECHSAT 1B (GO-32)      
1 25397U 98043D   22347.42046156  .00000087  00000+0  57958-4 0  9998
2 25397  98.8433 298.5586 0000918   6.3777 353.7413 14.23794193268896
SCD 2                   
1 25504U 98060A   22347.49705723  .00000442  00000+0  74364-4 0  9991
2 25504  24.9969  48.7124 0016907 272.0948 220.6207 14.44273043274754
LANDSAT 7               
1 25682U 99020A   22347.53430329  .00000410  00000+0  94925-4 0  9997
2 25682  97.9563  28.6379 0001068  81.9798 278.1531 14.59855591258695
DLR-TUBSAT              
1 25757U 99029B   22347.42871918  .00000137  00000+0  45997-4 0  9991
2 25757  98.5104 291.9151 0013310 295.0199  64.9613 14.51549123247249
TERRA                   
1 25994U 99068A   22347.49524238  .00000432  00000+0  10178-3 0  9994
2 25994  98.1190  55.2910 0000502 338.4904 110.6875 14.58937759222584
MAROC-TUBSAT            
1 27004U 01056D   22347.36272260 -.00000016  00000+0  33679-4 0  9990
2 27004  99.6512 127.9994 0019712 189.8642 198.9761 13.70164309 50646
AQUA                    
1 27424U 02022A   22347.55314955  .00000804  00000+0  18708-3 0  9998
2 27424  98.2677 287.9167 0001772  61.2423  25.7681 14.57510573 96276
IRS-P6 (RESOURCESAT-1)  
1 28051U 03046A   22347.54052348 -.00000689  00000+0 -22631-3 0  9999
2 28051  98.3859  53.4048 0058154 204.0389 155.8102 14.34206449996691
SHIYAN 1 (SY-1)         
1 28220U 04012A   22347.42983136  .00003661  00000+0  27661-3 0  9995
2 28220  97.9851 344.8253 0012152  92.1110 268.1506 15.02985557 16898
AURA                    
1 28376U 04026A   22347.51816763  .00000797  00000+0  18699-3 0  9991
2 28376  98.2298 288.4294 0001352  89.1460 270.9893 14.57103308979300
IRS-P5 (CARTOSAT-1)     
1 28649U 05017A   22347.13368706  .00001201  00000+0  14876-3 0  9996
2 28649  97.6963  41.5679 0001715  41.2146 318.9198 14.84479105953240
SINAH 1                 
1 28893U 05043D   22347.59842043  .00000364  00000+0  82257-4 0  9995
2 28893  98.1325 108.0465 0014529 335.9438  24.1083 14.61824949913122
EROS B                  
1 29079U 06014A   22347.59813882  .00017656  00000+0  71671-3 0  9999
2 29079  97.3814 105.5935 0002879 347.2792  23.3541 15.24651939923668
RESURS-DK 1             
1 29228U 06021A   22347.52377969  .00001458  00000+0  11326-3 0  9991
2 29228  69.9360  32.5067 0003584 192.3699 167.7375 15.03724521909295
ARIRANG-2 (KOMPSAT-2)   
1 29268U 06031A   22347.46008087  .00000406  00000+0  88249-4 0  9992
2 29268  97.9259 209.2462 0015126 166.2117 193.9504 14.62885543874066
LAPAN-TUBSAT            
1 29709U 07001A   22347.47572685  .00000626  00000+0  84293-4 0  9990
2 29709  97.9924 309.7167 0013753  38.5334 321.6869 14.82675594861031
CARTOSAT-2 (IRS-P7)     
1 29710U 07001B   22347.29850732  .00035598  00000+0  74796-3 0  9996
2 29710  97.8771 104.0433 0133519 147.3401 213.6188 15.36172534863628
HAIYANG-1B              
1 31113U 07010A   22347.28369573  .00000075  00000+0  44614-4 0  9992
2 31113  98.3074   4.5173 0014558  46.4480 313.7909 14.30354305817333
COSMO-SKYMED 1          
1 31598U 07023A   22347.50738684  .00000392  00000+0  55768-4 0  9995
2 31598  97.8864 168.6296 0001356  87.1203 273.0168 14.82159021839486
TERRASAR-X              
1 31698U 07026A   22343.20163617 -.00000607  00000+0 -25730-4 0  9997
2 31698  97.4437 348.3096 0002000  73.9072  46.6597 15.19146408858643
WORLDVIEW-1 (WV-1)      
1 32060U 07041A   22347.60575038  .00007385  00000+0  30264-3 0  9995
2 32060  97.3944 104.5965 0006386 206.6678 153.4232 15.24549646847686
YAOGAN 3                
1 32289U 07055A   22347.51014160  .00002003  00000+0  26021-3 0  9995
2 32289  97.9354   7.9272 0001117  83.4010 276.7335 14.81830998815554
COSMO-SKYMED 2          
1 32376U 07059A   22347.47363101  .00000620  00000+0  84393-4 0  9993
2 32376  97.8862 168.5957 0001377  91.1525 268.9862 14.82158157812223
RADARSAT-2              
1 32382U 07061A   22347.48179023  .00000084  00000+0  49644-4 0  9996
2 32382  98.5770 351.8233 0001062  89.9284  64.2736 14.29983278782884
CARTOSAT-2A             
1 32783U 08021A   22347.47352299  .00000963  00000+0  13835-3 0  9993
2 32783  97.9432  45.6723 0011651 313.3004  46.7241 14.78664527789473
HUANJING 1A (HJ-1A)     
1 33320U 08041A   22347.49743253  .00000571  00000+0  85562-4 0  9991
2 33320  97.6607  12.0146 0021458  13.3475 346.8308 14.78014257768838
HUANJING 1B (HJ-1B)     
1 33321U 08041B   22347.51537009  .00001236  00000+0  17612-3 0  9994
2 33321  97.6764  15.9562 0035029  29.8868 330.4348 14.78080072768835
GEOEYE 1                
1 33331U 08042A   22347.44156805  .00000531  00000+0  10937-3 0  9999
2 33331  98.1065  59.7684 0010337  83.0684 277.1705 14.64364826762565
THEOS                   
1 33396U 08049A   22346.00599832 -.00000043  00000+0  39533-6 0  9994
2 33396  98.7293  51.5735 0001281 101.6766  20.0671 14.20026177735864
COSMO-SKYMED 3          
1 33412U 08054A   22347.50187340  .00001827  00000+0  18417-3 0  9997
2 33412  97.8858 171.4827 0016452 245.2620 114.6888 14.92308689764877
YAOGAN 4                
1 33446U 08061A   22347.57560663  .00000758  00000+0  11294-3 0  9990
2 33446  97.8354 282.4118 0014709 275.3663  84.5869 14.77617132756048
GOSAT (IBUKI)           
1 33492U 09002A   22347.25953673  .00000839  00000+0  15664-3 0  9994
2 33492  98.1306  98.4630 0001536  92.6220 267.5160 14.67522825743447
YAOGAN 6                
1 34839U 09021A   22347.42965374  .00006764  00000+0  22322-3 0  9993
2 34839  97.1048 319.6016 0026036  21.1703 339.0611 15.31394941758604
DEIMOS-1                
1 35681U 09041A   22347.56707420  .00000505  00000+0  87453-4 0  9996
2 35681  97.6925 189.2782 0002378  45.0436 315.0969 14.72198054718125
DUBAISAT-1              
1 35682U 09041B   22347.40700821  .00000839  00000+0  14940-3 0  9998
2 35682  97.8251 132.9909 0010450 214.6582 145.3929 14.69467410716569
OCEANSAT-2              
1 35931U 09051A   22347.66460401 -.00044195  00000+0 -18398-1 0  9995
2 35931  98.2932  75.0572 0003787 321.1088  38.6289 14.26632448699886
WORLDVIEW-2 (WV-2)      
1 35946U 09055A   22347.48459236  .00000239  00000+0  93894-4 0  9995
2 35946  98.4715  60.2375 0001329 144.8337 215.2951 14.37756641691635
SMOS                    
1 36036U 09059A   22347.47030208  .00000324  00000+0  11742-3 0  9999
2 36036  98.4393 172.4110 0001111  92.6670 267.4646 14.39736941689023
YAOGAN 7                
1 36110U 09069A   22347.54357029  .00000571  00000+0  92084-4 0  9997
2 36110  98.1797 209.4261 0025446 191.9953 168.0658 14.75196060700545
TANDEM-X                
1 36605U 10030A   22346.93408372  .00001886  00000+0  93015-4 0  9991
2 36605  97.4452 351.9881 0002029  93.5533 266.5933 15.19144867691971
CARTOSAT-2B             
1 36795U 10035A   22347.44359419  .00000775  00000+0  11269-3 0  9996
2 36795  97.9387  45.6680 0014246  29.9302 330.2723 14.78674614670513
YAOGAN 10               
1 36834U 10038A   22347.47075038  .00000649  00000+0  89574-4 0  9993
2 36834  97.9720 357.4507 0001201  77.0425 283.0933 14.81461200667284
COSMO-SKYMED 4          
1 37216U 10060A   22347.55377622  .00000520  00000+0  71823-4 0  9992
2 37216  97.8865 168.6712 0001210  82.4495 277.6870 14.82165918654783
RESOURCESAT-2           
1 37387U 11015A   22347.45858622  .00000170  00000+0  97260-4 0  9999
2 37387  98.6460  56.5204 0003147 273.5268  86.5563 14.21664909604592
HAIYANG-2A              
1 37781U 11043A   22347.46430487 -.00000012  00000+0  31763-4 0  9996
2 37781  99.3195 350.2273 0001561  92.3684 267.7646 13.78737508570055
RASAT                   
1 37791U 11044D   22347.44473878  .00000542  00000+0  10940-3 0  9997
2 37791  98.0945  77.6553 0020524 287.5148  72.3818 14.65173660605329
MEGHA-TROPIQUES         
1 37838U 11058A   22347.27928217  .00142861 -12537-4  94477-3 0  9999
2 37838  19.9651 209.9279 0374601 223.0369 134.0171 15.16496029509785
SRMSAT                  
1 37841U 11058D   22347.44045483  .00000420  00000+0  85579-4 0  9991
2 37841  19.9715 252.9782 0011982 150.4471   4.6646 14.10802050576549
YAOGAN 13               
1 37941U 11072A   22347.54599539  .00007562  00000+0  32125-3 0  9997
2 37941  97.6554 300.5793 0003033 102.7045   8.5779 15.23354724612042
PLEIADES 1A             
1 38012U 11076F   22347.49907062  .00000366  00000+0  88432-4 0  9997
2 38012  98.1852  59.9530 0001382  98.8261 261.3096 14.58573469585173
ZIYUAN 1-02C (ZY 1-02C) 
1 38038U 11079A   22347.01650106  .00000750  00000+0  27277-3 0  9996
2 38038  98.5671  50.6458 0007248 160.5943 199.7064 14.36085666575106
ZIYUAN 3-1 (ZY 3-1)     
1 38046U 12001A   22347.53522580  .00006603  00000+0  29651-3 0  9993
2 38046  97.3222  53.8079 0001472   7.3833  99.3255 15.21488835606839
ARIRANG-3 (KOMPSAT-3)   
1 38338U 12025B   22347.43811733  .00000532  00000+0  11657-3 0  9995
2 38338  98.1997 285.8505 0010621 155.8730 204.2970 14.61536050564125
KANOPUS-V 1             
1 38707U 12039A   22347.62329881  .00009288  00000+0  38356-3 0  9991
2 38707  97.4741 268.7377 0002069  73.1123  24.7810 15.24237324576668
EXACTVIEW-1 (ADS-1B)    
1 38709U 12039C   22347.22309343  .00000121  00000+0  72827-4 0  9999
2 38709  98.9911  57.9686 0010028 263.7705  96.2331 14.24142734540182
SPOT 6                  
1 38755U 12047A   22347.51488759  .00000373  00000+0  90172-4 0  9992
2 38755  98.2149  52.3130 0000997  79.4540 280.6774 14.58544484546254
PLEIADES 1B             
1 39019U 12068A   22347.46463241  .00000371  00000+0  89654-4 0  9993
2 39019  98.1806  59.8108 0001350  84.5782 275.5584 14.58561300534023
GOKTURK 2               
1 39030U 12073A   22345.87898348  .00000521  00000+0  88723-4 0  9998
2 39030  97.8271 218.8231 0001624 112.5166 247.6173 14.72894533535471
LANDSAT 8               
1 39084U 13008A   22347.58358103  .00000357  00000+0  89205-4 0  9999
2 39084  98.2044  55.4416 0001379  97.5387 262.5968 14.57122259523081
